satname,norad_id,inclination_deg,eccentricity,mean_motion_rev_per_day,perigee_km,apogee_km,l1,l2
STARLINK-1451,45668,53.0557,0.0001961,15.07228044,543.3173208666303,546.032447687644,1 45668U 20035M   26015.81399120  .00014396  00000+0  96170-3 0  9994,2 45668  53.0557 304.2523 0001961  99.0840 261.0371 15.07228044310762
STARLINK-1452,45669,53.0364,0.0003993,15.36005627,455.20549241377284,460.6647796215957,1 45669U 20035N   26015.67435294  .00052919  00000+0  14879-2 0  9990,2 45669  53.0364 272.5794 0003993 143.0062 217.1215 15.36005627311198
STARLINK-1453,45670,53.0536,0.0007273,15.4090251,438.4830708889258,448.4057432036161,1 45670U 20035P   26015.72208350  .00062293  00000+0  14891-2 0  9999,2 45670  53.0536 266.2464 0007273 122.6562 237.5145 15.40902510311176
STARLINK-1454,45671,53.0557,0.0001557,15.17137431,513.4239389307295,515.5703051963401,1 45671U 20035Q   26015.91668981  .00673912  00000+0  31380-1 0  9998,2 45671  53.0557 303.3031 0001557  86.5762  80.4184 15.17137431  5738
STARLINK-1456,45673,53.0561,0.0006795,15.38949331,444.5758045973016,453.8541759520849,1 45673U 20035S   26015.75796774  .00031541  00000+0  81231-3 0  9992,2 45673  53.0561 298.2867 0006795 102.8884 257.2878 15.38949331310848
STARLINK-1457,45674,53.0516,0.0014243,15.55424188,391.2644367759567,410.57525811158484,1 45674U 20035T   26015.39261835  .00024774  00000+0  36180-3 0  9991,2 45674  53.0516 286.0194 0014243  91.3431 268.9211 15.55424188310953
STARLINK-1458,45675,53.0542,0.0001805,15.15812768,517.2673233655514,519.7570137153934,1 45675U 20035U   26015.91668981  .00053246  00000+0  27496-2 0  9998,2 45675  53.0542 303.3897 0001805  48.9511  11.0124 15.15812768  5270
STARLINK-1460,45676,53.0564,0.0001673,15.06384181,546.1014223941893,548.4186602442151,1 45676U 20035V   26015.82278045  .00002589  00000+0  19275-3 0  9998,2 45676  53.0564 303.9466 0001673  88.6709 271.4471 15.06384181310725
STARLINK-1392,45677,53.0534,0.0001528,15.06395845,546.1660972386326,548.2824876496034,1 45677U 20035W   26015.83383782  .00000600  00000+0  59176-4 0  9992,2 45677  53.0534 303.8984 0001528  89.6427 270.4737 15.06395845310761
STARLINK-1394,45679,53.0549,0.0005627,15.39680733,443.2121314294591,450.8931998791868,1 45679U 20035Y   26015.73327207  .00042709  00000+0  10691-2 0  9996,2 45679  53.0549 288.3942 0005627 105.6309 254.5316 15.39680733310970
STARLINK-1402,45685,53.053,0.001055,15.36121309,450.38023107679055,464.8036191087367,1 45685U 20035AE  26015.71616313  .00053218  00000+0  14885-2 0  9996,2 45685  53.0530 273.9791 0010550  87.0747 273.1462 15.36121309311188
STARLINK-1404,45686,53.0556,0.0001651,15.06395684,546.0814086573928,548.368163119093,1 45686U 20035AF  26015.79052909  .00000687  00000+0  65046-4 0  9999,2 45686  53.0556 294.0956 0001651  81.3670 278.7506 15.06395684310903
STARLINK-1413,45689,53.0545,0.0001412,15.06394595,546.2502619789038,548.2059850897895,1 45689U 20035AJ  26015.01279552 -.00000064  00000+0  14572-4 0  9990,2 45689  53.0545 297.5817 0001412  81.4171 278.6978 15.06394595310698
STARLINK-1417,45693,53.0531,0.0007106,15.09451369,532.9607909267161,542.7898276206552,1 45693U 20035AN  26015.74621720  .00006627  00000+0  42689-3 0  9992,2 45693  53.0531 293.6694 0007106  83.3710 276.8089 15.09451369310895
STARLINK-1420,45695,53.0568,0.0002021,15.16667275,514.5282040876609,517.3147825306569,1 45695U 20035AQ  26015.91668981  .00008351  00000+0  43675-3 0  9995,2 45695  53.0568 273.3226 0002021  94.0459 248.9037 15.16667275  5788
STARLINK-1422,45696,53.0722,0.0001522,15.11230946,531.3930700082065,533.4966511265638,1 45696U 20035AR  26015.91668981  .00010611  00000+0  64054-3 0  9992,2 45696  53.0722 293.4589 0001522 111.3159 110.3186 15.11230946  5739
STARLINK-1351,45697,53.0548,0.0002747,15.22982893,494.960543484498,498.73766084902854,1 45697U 20035AS  26015.91668981  .00051844  00000+0  21762-2 0  9994,2 45697  53.0548 272.5357 0002747  75.0008  33.9584 15.22982893  5780
STARLINK-1398,45699,53.0433,0.0005623,15.69356009,356.9506570716221,364.5291980643642,1 45699U 20035AU  26015.91668981  .00236349  00000+0  19274-2 0  9996,2 45699  53.0433 204.4901 0005623 148.6022 168.6213 15.69356009  5941
STARLINK-1400,45700,53.0543,0.0002838,15.17253714,512.1889182500636,516.1009774836721,1 45700U 20035AV  26015.91668981  .00015210  00000+0  76892-3 0  9991,2 45700  53.0543 273.3051 0002838 103.2262 105.0980 15.17253714  5707
STARLINK-1403,45701,53.0553,0.0001598,15.06401232,546.1011119421219,548.314452134462,1 45701U 20035AW  26015.13258872  .00002475  00000+0  18500-3 0  9991,2 45701  53.0553 277.0425 0001598 105.7926 254.3239 15.06401232311074
STARLINK-1407,45703,53.0393,0.0004023,15.49910802,414.25308652340027,419.7204431045684,1 45703U 20035AY  26015.73965726  .00077925  00000+0  13656-2 0  9990,2 45703  53.0393 211.8467 0004023 275.5385  84.5164 15.49910802312055
STARLINK-1411,45706,53.0472,0.0002182,15.52831373,406.98305949105907,409.9447321219877,1 45706U 20035BB  26015.61531784  .00038520  00000+0  61518-3 0  9992,2 45706  53.0472 238.8973 0002182 166.1868 193.9201 15.52831373311653
STARLINK-1423,45710,53.0561,1.22e-05,15.1984819,506.21501995095514,506.38300018960126,1 45710U 20035BF  26015.91668981  .00059401  00000+0  27282-2 0  9990,2 45710  53.0561 273.1509 0000122 284.1220  63.8795 15.19848190  5784
STARLINK-1433,45711,53.0534,0.0002141,15.24749965,490.06554629834136,493.00714042396794,1 45711U 20035BG  26015.91668981  .00014781  00000+0  60134-3 0  9997,2 45711  53.0534 273.0355 0002141  83.4155  65.7957 15.24749965  5780
STARLINK-1434,45712,53.0528,0.0004393,15.20798705,500.4070760099712,506.4532209066074,1 45712U 20035BH  26015.70445671  .00026146  00000+0  11814-2 0  9992,2 45712  53.0528 264.3672 0004393  69.0522 291.0943 15.20798705311318
STARLINK-1465,45731,53.056,0.0001331,15.19823474,505.4573198708058,507.289976605367,1 45731U 20038B   26015.91668981  .00045685  00000+0  21071-2 0  9995,2 45731  53.0560 113.1794 0001331 113.1528 140.1777 15.19823474  5732
STARLINK-1471,45735,53.0504,0.0002623,15.44694905,430.48830997998994,434.0610519478241,1 45735U 20038F   26015.47341513  .00013701  00000+0  29742-3 0  9997,2 45735  53.0504  36.2047 0002623  69.0091 291.1195 15.44694905309291
STARLINK-1474,45738,53.0304,0.0005547,15.85624326,310.85492024643645,318.2798064671433,1 45738U 20038J   26015.15407185  .00140402  00000+0  56172-3 0  9999,2 45738  53.0304 337.0833 0005547 104.3618 255.8021 15.85624326310082
STARLINK-1480,45741,53.0539,0.0005017,15.38974787,445.71445839713215,452.56494784104234,1 45741U 20038M   26015.83679445  .00038781  00000+0  99499-3 0  9993,2 45741  53.0539 108.4605 0005017   1.8510 358.2510 15.38974787308318
STARLINK-1500,45744,53.039,0.0003492,15.31649188,468.49978660021407,473.28314808180585,1 45744U 20038Q   26015.55194235  .00011360  00000+0  37784-3 0  9997,2 45744  53.0390  81.4211 0003492  67.1262 293.0106 15.31649188308665
STARLINK-1504,45746,53.0259,0.0003766,15.49364568,416.0241226768221,421.14341275906736,1 45746U 20038S   26015.47077747  .00018462  00000+0  33848-3 0  9995,2 45746  53.0259  38.2022 0003766  41.2811 318.8480 15.49364568309250
STARLINK-1506,45747,53.0802,0.0004071,15.24141755,490.566399665855,496.16117560714974,1 45747U 20038T   26015.52004082  .00012571  00000+0  52290-3 0  9991,2 45747  53.0802  87.9661 0004071  80.7604 279.3854 15.24141755308577
STARLINK-1464,45751,53.0539,0.0001677,15.16878975,514.1240159064082,516.4360679822757,1 45751U 20038X   26015.91668981  .00004403  00000+0  23646-3 0  9991,2 45751  53.0539  93.2339 0001677 112.2606 201.9015 15.16878975  5782
STARLINK-1477,45754,53.0524,0.0002119,15.11102538,531.3719105195742,534.3007810235122,1 45754U 20038AA  26015.38009287  .00016784  00000+0  10058-2 0  9990,2 45754  53.0524  94.6341 0002119 206.3138 153.7745 15.11102538308469
STARLINK-1478,45755,53.0554,5.47e-05,15.42628984,437.9808930636891,438.7266171522979,1 45755U 20038AB  26015.91668981  .01755570  00000+0  35846-1 0  9997,2 45755  53.0554  90.9278 0000547  91.5973 145.7902 15.42628984  5782
STARLINK-1484,45756,53.0098,0.0004739,15.77230271,335.1092501140811,341.47508167751766,1 45756U 20038AC  26015.25957350  .00090777  00000+0  54023-3 0  9996,2 45756  53.0098 327.9391 0004739  94.6670 265.4891 15.77230271310210
STARLINK-1493,45759,53.0556,0.0001674,15.14320535,521.8868715178851,524.1973862902432,1 45759U 20038AF  26015.91668981  .00010198  00000+0  56584-3 0  9994,2 45759  53.0556  93.3740 0001674  69.3655  53.2303 15.14320535  5790
STARLINK-1494,45760,53.0525,0.0001145,15.64497809,373.9102418071807,375.4566376878838,1 45760U 20038AG  26015.91668981  .00072629  00000+0  73955-3 0  9994,2 45760  53.0525  52.0858 0001145  74.1919 152.4646 15.64497809  5932
STARLINK-1502,45764,53.0541,0.0001309,15.10571059,533.5524290643061,535.3621462488154,1 45764U 20038AL  26015.91668981  .00008312  00000+0  51488-3 0  9993,2 45764  53.0541  93.4283 0001309  18.9303 256.5592 15.10571059  5724
STARLINK-1470,45772,53.045,0.0001519,15.23552725,494.090712072536,496.17881203384786,1 45772U 20038AU  26015.34809742  .00032282  00000+0  13412-2 0  9998,2 45772  53.0450  60.9962 0001519 156.2158 203.8909 15.23552725308931
STARLINK-1482,45773,53.0557,0.000152,15.06410716,546.1260671476566,548.2313631250581,1 45773U 20038AV  26015.37586172  .00002559  00000+0  19060-3 0  9991,2 45773  53.0557  75.9540 0001520  83.7445 276.3718 15.06410716308727
STARLINK-1496,45780,53.056,0.0003535,15.38401573,448.42146806114033,453.24955162559945,1 45780U 20038BC  26015.40939510  .00049912  00000+0  13001-2 0  9993,2 45780  53.0560  70.8908 0003535  28.3115 331.8080 15.38401573308789
STARLINK-1497,45781,53.0314,0.0007978,15.84889712,311.29420953354474,321.9763882136276,1 45781U 20038BD  26015.91668981  .00378654  00000+0  15210-2 0  9993,2 45781  53.0314 345.5762 0007978  82.4796  20.4664 15.84889712  5912
